ONEWEB-0587             
1 54654U 22166N   26052.62181790  .00000043  00000+0  73456-4 0  9995
2 54654  87.9184 267.0106 0001799  98.6301 261.5037 13.21827094156416
ONEWEB-0589             
1 54655U 22166P   26052.60863592  .00000042  00000+0  70075-4 0  9994
2 54655  87.9170 267.0402 0001533  55.7896 304.3383 13.21825390156271
ONEWEB-0590             
1 54656U 22166Q   26052.55750066 -.00000022  00000+0 -83823-4 0  9995
2 54656  87.9178 267.0285 0001990  81.4548 278.6811 13.21825344156252
ONEWEB-0591             
1 54657U 22166R   26052.03927421  .00000058  00000+0  10964-3 0  9992
2 54657  87.9170 267.1549 0001639  87.0422 273.0899 13.21827143156212
ONEWEB-0592             
1 54658U 22166S   26052.57245318 -.00000012  00000+0 -59483-4 0  9992
2 54658  87.9180 267.0177 0001623  88.2539 271.8781 13.21826546156161
ONEWEB-0593             
1 54659U 22166T   26052.51979005  .00000035  00000+0  54356-4 0  9991
2 54659  87.9173 267.0487 0001458  87.5680 272.5621 13.21825804156261
ONEWEB-0594             
1 54660U 22166U   26052.61522868  .00000104  00000+0  22096-3 0  9997
2 54660  87.9173 267.0479 0001601  91.9791 268.1526 13.21827191156295
ONEWEB-0595             
1 54661U 22166V   26052.51649652  .00000024  00000+0  26006-4 0  9995
2 54661  87.9173 267.0390 0001754  92.5059 267.6276 13.21826098156258
ONEWEB-0596             
1 54662U 22166W   26052.56585826 -.00000009  00000+0 -53328-4 0  9995
2 54662  87.9172 267.0474 0001677  90.6749 269.4577 13.21826875156268
ONEWEB-0597             
1 54663U 22166X   26052.62345302  .00001160  00000+0  27762-2 0  9994
2 54663  87.9172 267.0407 0001911  82.0684 278.0667 13.21833404156272
ONEWEB-0600             
1 54664U 22166Y   26052.60536128  .00000039  00000+0  62961-4 0  9997
2 54664  87.9170 267.0356 0001351  92.3627 267.7662 13.21828049156249
ONEWEB-0601             
1 54665U 22166Z   26052.52143517 -.00000009  00000+0 -54257-4 0  9993
2 54665  87.9169 267.0698 0001487  78.6719 281.4582 13.21824980156420
ONEWEB-0602             
1 54666U 22166AA  26052.56174650 -.00000029  00000+0 -10211-3 0  9993
2 54666  87.9171 267.0671 0001281  91.4269 268.7012 13.21826008156272
ONEWEB-0603             
1 54667U 22166AB  26052.56750231  .00000007  00000+0 -15639-4 0  9994
2 54667  87.9182 267.0106 0001487  84.6345 275.4959 13.21826514156205
ONEWEB-0604             
1 54668U 22166AC  26052.55598583 -.00000007  00000+0 -49091-4 0  9994
2 54668  87.9181 267.0274 0001589  89.3190 270.8126 13.21826398156164
ONEWEB-0605             
1 54669U 22166AD  26052.54940508  .00000009  00000+0 -98937-5 0  9997
2 54669  87.9170 267.0542 0001734  67.6606 292.4711 13.21827032156238
ONEWEB-0606             
1 54670U 22166AE  26052.57080278 -.00000051  00000+0 -15612-3 0  9996
2 54670  87.9171 267.0626 0001747  91.8385 268.2949 13.21825129156296
