[{"OBJECT_NAME":"ONEWEB-0587","OBJECT_ID":"2022-166N","EPOCH":"2026-02-21T14:55:25.066560","MEAN_MOTION":13.21827094,"ECCENTRICITY":0.0001799,"INCLINATION":87.9184,"RA_OF_ASC_NODE":267.0106,"ARG_OF_PERICENTER":98.6301,"MEAN_ANOMALY":261.5037,"EPHEMERIS_TYPE":0,"CLASSIFICATION_TYPE":"U","NORAD_CAT_ID":54654,"ELEMENT_SET_NO":999,"REV_AT_EPOCH":15641,"BSTAR":7.3455903e-5,"MEAN_MOTION_DOT":4.3e-7,"MEAN_MOTION_DDOT":0},{"OBJECT_NAME":"ONEWEB-0589","OBJECT_ID":"2022-166P","EPOCH":"2026-02-21T14:36:26.143488","MEAN_MOTION":13.2182539,"ECCENTRICITY":0.00015338,"INCLINATION":87.917,"RA_OF_ASC_NODE":267.0402,"ARG_OF_PERICENTER":55.7896,"MEAN_ANOMALY":304.3383,"EPHEMERIS_TYPE":0,"CLASSIFICATION_TYPE":"U","NORAD_CAT_ID":54655,"ELEMENT_SET_NO":999,"REV_AT_EPOCH":15627,"BSTAR":7.0074847e-5,"MEAN_MOTION_DOT":4.2e-7,"MEAN_MOTION_DDOT":0},{"OBJECT_NAME":"ONEWEB-0590","OBJECT_ID":"2022-166Q","EPOCH":"2026-02-21T13:22:48.057024","MEAN_MOTION":13.21825344,"ECCENTRICITY":0.00019902,"INCLINATION":87.9178,"RA_OF_ASC_NODE":267.0285,"ARG_OF_PERICENTER":81.4548,"MEAN_ANOMALY":278.6811,"EPHEMERIS_TYPE":0,"CLASSIFICATION_TYPE":"U","NORAD_CAT_ID":54656,"ELEMENT_SET_NO":999,"REV_AT_EPOCH":15625,"BSTAR":-8.3822784e-5,"MEAN_MOTION_DOT":-2.2e-7,"MEAN_MOTION_DDOT":0},{"OBJECT_NAME":"ONEWEB-0591","OBJECT_ID":"2022-166R","EPOCH":"2026-02-21T00:56:33.291744","MEAN_MOTION":13.21827143,"ECCENTRICITY":0.00016391,"INCLINATION":87.917,"RA_OF_ASC_NODE":267.1549,"ARG_OF_PERICENTER":87.0422,"MEAN_ANOMALY":273.0899,"EPHEMERIS_TYPE":0,"CLASSIFICATION_TYPE":"U","NORAD_CAT_ID":54657,"ELEMENT_SET_NO":999,"REV_AT_EPOCH":15621,"BSTAR":0.00010963628,"MEAN_MOTION_DOT":5.8e-7,"MEAN_MOTION_DDOT":0},{"OBJECT_NAME":"ONEWEB-0592","OBJECT_ID":"2022-166S","EPOCH":"2026-02-21T13:44:19.954752","MEAN_MOTION":13.21826546,"ECCENTRICITY":0.00016238,"INCLINATION":87.918,"RA_OF_ASC_NODE":267.0177,"ARG_OF_PERICENTER":88.2539,"MEAN_ANOMALY":271.8781,"EPHEMERIS_TYPE":0,"CLASSIFICATION_TYPE":"U","NORAD_CAT_ID":54658,"ELEMENT_SET_NO":999,"REV_AT_EPOCH":15616,"BSTAR":-5.9482872e-5,"MEAN_MOTION_DOT":-1.2e-7,"MEAN_MOTION_DDOT":0},{"OBJECT_NAME":"ONEWEB-0593","OBJECT_ID":"2022-166T","EPOCH":"2026-02-21T12:28:29.860320","MEAN_MOTION":13.21825804,"ECCENTRICITY":0.00014584,"INCLINATION":87.9173,"RA_OF_ASC_NODE":267.0487,"ARG_OF_PERICENTER":87.568,"MEAN_ANOMALY":272.5621,"EPHEMERIS_TYPE":0,"CLASSIFICATION_TYPE":"U","NORAD_CAT_ID":54659,"ELEMENT_SET_NO":999,"REV_AT_EPOCH":15626,"BSTAR":5.4355748e-5,"MEAN_MOTION_DOT":3.5e-7,"MEAN_MOTION_DDOT":0},{"OBJECT_NAME":"ONEWEB-0594","OBJECT_ID":"2022-166U","EPOCH":"2026-02-21T14:45:55.757952","MEAN_MOTION":13.21827191,"ECCENTRICITY":0.00016018,"INCLINATION":87.9173,"RA_OF_ASC_NODE":267.0479,"ARG_OF_PERICENTER":91.9791,"MEAN_ANOMALY":268.1526,"EPHEMERIS_TYPE":0,"CLASSIFICATION_TYPE":"U","NORAD_CAT_ID":54660,"ELEMENT_SET_NO":999,"REV_AT_EPOCH":15629,"BSTAR":0.00022095586,"MEAN_MOTION_DOT":1.04e-6,"MEAN_MOTION_DDOT":0},{"OBJECT_NAME":"ONEWEB-0595","OBJECT_ID":"2022-166V","EPOCH":"2026-02-21T12:23:45.299328","MEAN_MOTION":13.21826098,"ECCENTRICITY":0.00017543,"INCLINATION":87.9173,"RA_OF_ASC_NODE":267.039,"ARG_OF_PERICENTER":92.5059,"MEAN_ANOMALY":267.6276,"EPHEMERIS_TYPE":0,"CLASSIFICATION_TYPE":"U","NORAD_CAT_ID":54661,"ELEMENT_SET_NO":999,"REV_AT_EPOCH":15625,"BSTAR":2.600647e-5,"MEAN_MOTION_DOT":2.4e-7,"MEAN_MOTION_DDOT":0},{"OBJECT_NAME":"ONEWEB-0596","OBJECT_ID":"2022-166W","EPOCH":"2026-02-21T13:34:50.153664","MEAN_MOTION":13.21826875,"ECCENTRICITY":0.00016776,"INCLINATION":87.9172,"RA_OF_ASC_NODE":267.0474,"ARG_OF_PERICENTER":90.6749,"MEAN_ANOMALY":269.4577,"EPHEMERIS_TYPE":0,"CLASSIFICATION_TYPE":"U","NORAD_CAT_ID":54662,"ELEMENT_SET_NO":999,"REV_AT_EPOCH":15626,"BSTAR":-5.3327834e-5,"MEAN_MOTION_DOT":-9.0e-8,"MEAN_MOTION_DDOT":0},{"OBJECT_NAME":"ONEWEB-0597","OBJECT_ID":"2022-166X","EPOCH":"2026-02-21T14:57:46.340928","MEAN_MOTION":13.21833404,"ECCENTRICITY":0.0001911,"INCLINATION":87.9172,"RA_OF_ASC_NODE":267.0407,"ARG_OF_PERICENTER":82.0684,"MEAN_ANOMALY":278.0667,"EPHEMERIS_TYPE":0,"CLASSIFICATION_TYPE":"U","NORAD_CAT_ID":54663,"ELEMENT_SET_NO":999,"REV_AT_EPOCH":15627,"BSTAR":0.0027761785,"MEAN_MOTION_DOT":1.16e-5,"MEAN_MOTION_DDOT":0},{"OBJECT_NAME":"ONEWEB-0600","OBJECT_ID":"2022-166Y","EPOCH":"2026-02-21T14:31:43.214592","MEAN_MOTION":13.21828049,"ECCENTRICITY":0.00013512,"INCLINATION":87.917,"RA_OF_ASC_NODE":267.0356,"ARG_OF_PERICENTER":92.3627,"MEAN_ANOMALY":267.7662,"EPHEMERIS_TYPE":0,"CLASSIFICATION_TYPE":"U","NORAD_CAT_ID":54664,"ELEMENT_SET_NO":999,"REV_AT_EPOCH":15624,"BSTAR":6.2961097e-5,"MEAN_MOTION_DOT":3.9e-7,"MEAN_MOTION_DDOT":0},{"OBJECT_NAME":"ONEWEB-0601","OBJECT_ID":"2022-166Z","EPOCH":"2026-02-21T12:30:51.998688","MEAN_MOTION":13.2182498,"ECCENTRICITY":0.0001487,"INCLINATION":87.9169,"RA_OF_ASC_NODE":267.0698,"ARG_OF_PERICENTER":78.6719,"MEAN_ANOMALY":281.4582,"EPHEMERIS_TYPE":0,"CLASSIFICATION_TYPE":"U","NORAD_CAT_ID":54665,"ELEMENT_SET_NO":999,"REV_AT_EPOCH":15642,"BSTAR":-5.425663e-5,"MEAN_MOTION_DOT":-9.0e-8,"MEAN_MOTION_DDOT":0},{"OBJECT_NAME":"ONEWEB-0602","OBJECT_ID":"2022-166AA","EPOCH":"2026-02-21T13:28:54.897600","MEAN_MOTION":13.21826008,"ECCENTRICITY":0.00012818,"INCLINATION":87.9171,"RA_OF_ASC_NODE":267.0671,"ARG_OF_PERICENTER":91.4269,"MEAN_ANOMALY":268.7012,"EPHEMERIS_TYPE":0,"CLASSIFICATION_TYPE":"U","NORAD_CAT_ID":54666,"ELEMENT_SET_NO":999,"REV_AT_EPOCH":15627,"BSTAR":-0.00010210824,"MEAN_MOTION_DOT":-2.9e-7,"MEAN_MOTION_DDOT":0},{"OBJECT_NAME":"ONEWEB-0603","OBJECT_ID":"2022-166AB","EPOCH":"2026-02-21T13:37:12.199584","MEAN_MOTION":13.21826514,"ECCENTRICITY":0.00014872,"INCLINATION":87.9182,"RA_OF_ASC_NODE":267.0106,"ARG_OF_PERICENTER":84.6345,"MEAN_ANOMALY":275.4959,"EPHEMERIS_TYPE":0,"CLASSIFICATION_TYPE":"U","NORAD_CAT_ID":54667,"ELEMENT_SET_NO":999,"REV_AT_EPOCH":15620,"BSTAR":-1.5638993e-5,"MEAN_MOTION_DOT":7.0e-8,"MEAN_MOTION_DDOT":0},{"OBJECT_NAME":"ONEWEB-0604","OBJECT_ID":"2022-166AC","EPOCH":"2026-02-21T13:20:37.175712","MEAN_MOTION":13.21826398,"ECCENTRICITY":0.00015893,"INCLINATION":87.9181,"RA_OF_ASC_NODE":267.0274,"ARG_OF_PERICENTER":89.319,"MEAN_ANOMALY":270.8126,"EPHEMERIS_TYPE":0,"CLASSIFICATION_TYPE":"U","NORAD_CAT_ID":54668,"ELEMENT_SET_NO":999,"REV_AT_EPOCH":15616,"BSTAR":-4.9091368e-5,"MEAN_MOTION_DOT":-7.0e-8,"MEAN_MOTION_DDOT":0},{"OBJECT_NAME":"ONEWEB-0605","OBJECT_ID":"2022-166AD","EPOCH":"2026-02-21T13:11:08.598912","MEAN_MOTION":13.21827032,"ECCENTRICITY":0.00017341,"INCLINATION":87.917,"RA_OF_ASC_NODE":267.0542,"ARG_OF_PERICENTER":67.6606,"MEAN_ANOMALY":292.4711,"EPHEMERIS_TYPE":0,"CLASSIFICATION_TYPE":"U","NORAD_CAT_ID":54669,"ELEMENT_SET_NO":999,"REV_AT_EPOCH":15623,"BSTAR":-9.893705e-6,"MEAN_MOTION_DOT":9.0e-8,"MEAN_MOTION_DDOT":0},{"OBJECT_NAME":"ONEWEB-0606","OBJECT_ID":"2022-166AE","EPOCH":"2026-02-21T13:41:57.360192","MEAN_MOTION":13.21825129,"ECCENTRICITY":0.00017478,"INCLINATION":87.9171,"RA_OF_ASC_NODE":267.0626,"ARG_OF_PERICENTER":91.8385,"MEAN_ANOMALY":268.2949,"EPHEMERIS_TYPE":0,"CLASSIFICATION_TYPE":"U","NORAD_CAT_ID":54670,"ELEMENT_SET_NO":999,"REV_AT_EPOCH":15629,"BSTAR":-0.00015612439,"MEAN_MOTION_DOT":-5.1e-7,"MEAN_MOTION_DDOT":0}]
